     2.11           N: GPS NAV DATA                         RINEX VERSION / TYPE
CONVBIN 2.4.3                           20210902 202001 UTC PGM / RUN BY / DATE 
log: logs/21_08_31_19_48_47_brdc.rtcm                       COMMENT             
format: RTCM 3                                              COMMENT             
                                                            END OF HEADER       
10 21  8 31 22  0  0.0 -.193915329874E-03 -.773070496507E-11  .000000000000E+00
     .720000000000E+02 -.602812500000E+02  .420517516242E-08 -.171342655317E+01
    -.326894223690E-05  .686262443196E-02  .847503542900E-05  .515367686844E+04
     .252000000000E+06  .353902578354E-07  .212744908783E+01 -.106170773506E-06
     .970272956655E+00  .218343750000E+03 -.258400918553E+01 -.774139388870E-08
     .313227332890E-09  .100000000000E+01  .217300000000E+04  .000000000000E+00
     .200000000000E+01  .000000000000E+00  .232830643654E-08  .720000000000E+02
     .172800000000E+06  .400000000000E+01
12 21  8 31 22  0  0.0 -.908770598471E-04 -.545696821064E-11  .000000000000E+00
     .104000000000E+03  .569375000000E+02  .418410285611E-08 -.109481900813E+01
     .296533107758E-05  .823994376697E-02  .811740756035E-05  .515369087219E+04
     .252000000000E+06  .931322574615E-08 -.939914185164E+00  .208616256714E-06
     .972267940965E+00  .229531250000E+03  .123166636323E+01 -.790997233924E-08
    -.303941231801E-09  .100000000000E+01  .217300000000E+04  .000000000000E+00
     .200000000000E+01  .000000000000E+00 -.125728547573E-07  .104000000000E+03
     .172800000000E+06  .400000000000E+01
13 21  8 31 21 59 44.0  .179103575647E-03  .534328137292E-11  .000000000000E+00
     .200000000000E+01  .187500000000E+01  .458947688442E-08  .193937489274E+01
     .894069671631E-07  .534644734580E-02  .779889523983E-05  .515368030930E+04
     .251984000000E+06 -.149011611938E-06 -.297369651243E+01 -.119209289551E-06
     .968635591446E+00  .233437500000E+03  .959516946567E+00 -.786139888739E-08
     .262510934634E-09  .100000000000E+01  .217300000000E+04  .000000000000E+00
     .200000000000E+01  .000000000000E+00 -.111758708954E-07  .200000000000E+01
     .172800000000E+06  .400000000000E+01
14 21  8 31 22  0  0.0  .112936832011E-04 -.829913915368E-11  .000000000000E+00
     .128000000000E+03  .637500000000E+02  .439089718421E-08 -.111967943859E+01
     .332109630108E-05  .107194238808E-02  .865198671818E-05  .515364977837E+04
     .252000000000E+06 -.447034835815E-07 -.968569056469E+00 -.894069671631E-07
     .955705238902E+00  .212781250000E+03  .308518829196E+01 -.792175854447E-08
    -.296083761649E-09  .100000000000E+01  .217300000000E+04  .000000000000E+00
     .200000000000E+01  .000000000000E+00 -.791624188423E-08  .896000000000E+03
     .172800000000E+06  .400000000000E+01
15 21  8 31 22  0  0.0 -.124384649098E-03  .272848410532E-11  .000000000000E+00
     .530000000000E+02 -.111875000000E+02  .549880047568E-08  .159136258653E+01
    -.622123479843E-06  .135770194465E-01  .834465026855E-05  .515366941261E+04
     .252000000000E+06 -.398606061935E-06  .305780995566E+01 -.987201929092E-07
     .929711045465E+00  .206281250000E+03  .101870628729E+01 -.844428030960E-08
     .300369654459E-09  .100000000000E+01  .217300000000E+04  .000000000000E+00
     .200000000000E+01  .000000000000E+00 -.107102096081E-07  .530000000000E+02
     .172800000000E+06  .400000000000E+01
16 21  8 31 22  0  0.0 -.383001752198E-03 -.636646291241E-11  .000000000000E+00
     .460000000000E+02  .721250000000E+02  .402623913759E-08 -.291240710892E+01
     .363774597645E-05  .121942538535E-01  .800006091595E-05  .515375382233E+04
     .252000000000E+06  .130385160446E-07 -.921211950781E+00 -.143423676491E-06
     .972309875512E+00  .230750000000E+03  .680200376779E+00 -.763067499110E-08
    -.196793911542E-09  .100000000000E+01  .217300000000E+04  .000000000000E+00
     .200000000000E+01  .000000000000E+00 -.102445483208E-07  .460000000000E+02
     .172800000000E+06  .400000000000E+01
17 21  8 31 22  0  0.0  .497898552567E-03  .579802872380E-11  .000000000000E+00
     .220000000000E+02  .548437500000E+02  .379230082169E-08  .252608476278E+01
     .282377004623E-05  .134967068443E-01  .434555113316E-05  .515365912819E+04
     .252000000000E+06  .113621354103E-06  .963358282711E-01 -.447034835815E-07
     .981666439148E+00  .301593750000E+03 -.155936369808E+01 -.770532095755E-08
     .492877673191E-10  .100000000000E+01  .217300000000E+04  .000000000000E+00
     .200000000000E+01  .000000000000E+00 -.111758708954E-07  .220000000000E+02
     .172800000000E+06  .400000000000E+01
18 21  8 31 22  0  0.0  .327285379171E-03 -.397903932026E-11  .000000000000E+00
     .221000000000E+03 -.520312500000E+02  .426589197724E-08  .584611638827E+00
    -.271201133728E-05  .187799194828E-02  .441074371338E-05  .515365145302E+04
     .252000000000E+06  .298023223877E-07  .110353559046E+01  .149011611938E-07
     .968903723849E+00  .298125000000E+03  .292720298191E+01 -.810069456930E-08
     .671456540289E-10  .100000000000E+01  .217300000000E+04  .000000000000E+00
     .200000000000E+01  .000000000000E+00 -.838190317154E-08  .221000000000E+03
     .172800000000E+06  .400000000000E+01
19 21  8 31 22  0  0.0  .469642691314E-04  .500222085975E-11  .000000000000E+00
     .172000000000E+03  .495625000000E+02  .396373653411E-08 -.137918260872E+01
     .277906656265E-05  .917153258342E-02  .482611358166E-05  .515365157890E+04
     .252000000000E+06 -.195577740669E-06  .141361648189E+00  .102445483208E-06
     .980274020553E+00  .299187500000E+03  .193184545527E+01 -.806390732268E-08
     .155720772109E-09  .100000000000E+01  .217300000000E+04  .000000000000E+00
     .280000000000E+01  .000000000000E+00 -.153668224812E-07  .172000000000E+03
     .172800000000E+06  .400000000000E+01
20 21  8 31 22  0  0.0  .519361346960E-03 -.227373675443E-12  .000000000000E+00
     .430000000000E+02 -.745937500000E+02  .496806408267E-08  .143427861103E+01
    -.403076410294E-05  .551785517018E-02  .736676156521E-05  .515364640427E+04
     .252000000000E+06  .279396772385E-07  .198121699622E+01  .838190317154E-07
     .939354697997E+00  .228468750000E+03  .297460823077E+01 -.818569811004E-08
     .118219210019E-09  .100000000000E+01  .217300000000E+04  .000000000000E+00
     .200000000000E+01  .000000000000E+00 -.838190317154E-08  .430000000000E+02
     .172800000000E+06  .400000000000E+01
21 21  8 31 22  0  0.0  .140300951898E-03  .204636307899E-11  .000000000000E+00
     .560000000000E+02 -.573125000000E+02  .446375736198E-08  .261915702855E+01
    -.300444662571E-05  .240683690645E-01  .360794365406E-05  .515365213203E+04
     .252000000000E+06  .357627868652E-06  .100687088943E+01  .158324837685E-06
     .957942382968E+00  .305562500000E+03 -.109141122970E+01 -.790818655057E-08
    -.125362364703E-09  .100000000000E+01  .217300000000E+04  .000000000000E+00
     .200000000000E+01  .000000000000E+00 -.102445483208E-07  .560000000000E+02
     .172800000000E+06  .400000000000E+01
22 21  8 31 22  0  0.0 -.524436123669E-03  .932232069317E-11  .000000000000E+00
     .610000000000E+02 -.755000000000E+02  .505485341208E-08  .139010081400E+01
    -.389106571674E-05  .676820683293E-02  .823289155960E-05  .515374850464E+04
     .252000000000E+06  .175088644028E-06  .202741707122E+01 -.260770320892E-07
     .936072791966E+00  .210468750000E+03 -.899051313690E+00 -.818212653270E-08
     .259296515026E-09  .100000000000E+01  .217300000000E+04  .000000000000E+00
     .200000000000E+01  .000000000000E+00 -.176951289177E-07  .610000000000E+02
     .172800000000E+06  .400000000000E+01
23 21  8 31 22  0  0.0  .634165480733E-04 -.500222085975E-11  .000000000000E+00
     .000000000000E+00 -.619687500000E+02  .438125392538E-08 -.147544223798E+00
    -.321865081787E-05  .161135825329E-02  .850670039654E-05  .515367017937E+04
     .252000000000E+06  .130385160446E-07  .210345768776E+01 -.316649675369E-07
     .965273047908E+00  .217375000000E+03  .265541367863E+01 -.791354391658E-08
     .215008955986E-09  .100000000000E+01  .217300000000E+04  .000000000000E+00
     .200000000000E+01  .000000000000E+00 -.838190317154E-08  .512000000000E+03
     .172800000000E+06  .400000000000E+01
24 21  8 31 21 59 44.0  .223638024181E-03  .966338120634E-11  .000000000000E+00
     .120000000000E+02  .109687500000E+02  .547915680030E-08  .617304342507E+00
     .782310962677E-06  .114530941937E-01  .687502324581E-05  .515371082687E+04
     .251984000000E+06 -.651925802231E-07 -.213164594672E+01  .124797224998E-06
     .934680456758E+00  .231468750000E+03  .752966186830E+00 -.857285709391E-08
    -.361443627006E-09  .100000000000E+01  .217300000000E+04  .000000000000E+00
     .200000000000E+01  .000000000000E+00  .279396772385E-08  .120000000000E+02
     .172800000000E+06  .400000000000E+01
25 21  8 31 22  0  0.0  .200659036636E-03  .636646291241E-11  .000000000000E+00
     .270000000000E+02  .505312500000E+02  .439375444608E-08 -.126706385907E+01
     .262446701527E-05  .985062913969E-02  .782683491707E-05  .515358328247E+04
     .252000000000E+06  .240281224251E-06 -.101460538266E+01  .162050127983E-06
     .959601144817E+00  .229312500000E+03  .969601562106E+00 -.795033116320E-08
    -.345728686702E-09  .100000000000E+01  .217300000000E+04  .000000000000E+00
     .200000000000E+01  .000000000000E+00  .558793544769E-08  .270000000000E+02
     .172800000000E+06  .400000000000E+01
